SIRION PATHFINDER-2     
1 43759U 18099B   26178.68632502  .00004972  00000+0  27240-3 0  9990
2 43759  97.4250 227.4940 0007158 259.9312 100.1112 15.14637514414212
CORVUS BC4              
1 43767U 18099K   26178.90562209  .00003943  00000+0  22956-3 0  9996
2 43767  97.4062 221.5720 0007122 334.9531  25.1353 15.12577306414023
M2 PATHFINDER           
1 45727U 20037E   26178.48742920  .00003072  00000+0  22233-3 0  9993
2 45727  97.8135   9.8342 0012592 116.4905 243.7614 15.04714303327042
NETSAT-4                
1 46504U 20068U   26178.75326690  .00017594  00000+0  38501-3 0  9992
2 46504  97.8598 187.8448 0003165 279.7774  80.3115 15.44206931317403
NETSAT-3                
1 46505U 20068V   26178.96215005  .00018594  00000+0  42291-3 0  9995
2 46505  97.8648 186.2738 0002972 308.0973  52.0005 15.43044201317343
NETSAT-1                
1 46506U 20068W   26178.89321931  .00012312  00000+0  36635-3 0  9991
2 46506  97.8741 180.4033 0003679 356.3759   3.7455 15.34880266316941
NETSAT-2                
1 46507U 20068X   26178.97253158  .00022515  00000+0  45573-3 0  9993
2 46507  97.8609 188.0166 0001833 343.5545  16.5643 15.46452432317403
GREENCUBE (IO-117)      
1 53109U 22080E   26178.76757484 -.00000003  00000+0  00000+0 0  9994
2 53109  70.1441 294.5656 0008983 287.3296  72.6381  6.42583239 92740
SITRO-AIS 5 (KATYS)     
1 57176U 23091L   26178.92971863  .00012772  00000+0  44537-3 0  9994
2 57176  97.5063 242.9322 0012300  70.0903 290.1661 15.29696691165985
SITRO-AIS 6 (CHIRKIN)   
1 57192U 23091AC  26178.93357225  .00010301  00000+0  40083-3 0  9991
2 57192  97.5069 241.9979 0012729  73.2681 286.9953 15.26133917165924
SITRO-AIS 8 (ANOKHIN)   
1 57193U 23091AD  26178.92782915  .00014823  00000+0  47478-3 0  9997
2 57193  97.5059 244.5629 0011232  66.4354 293.8066 15.32419646166098
SITRO-AIS 7 (FARTUSHNIY)
1 57194U 23091AE  26178.93893184  .00009867  00000+0  38774-3 0  9991
2 57194  97.5066 241.8227 0012659  74.1818 286.0815 15.25817246165912
SITRO-AIS 10 (BURDAEV)  
1 57199U 23091AK  26178.91383864  .00018440  00000+0  47878-3 0  9995
2 57199  97.5086 249.7144 0006601  46.8482 313.3314 15.39004821166413
SITRO-AIS 9 (SHCHUKIN)  
1 57201U 23091AM  26178.94369535  .00020068  00000+0  52918-3 0  9991
2 57201  97.5082 249.4663 0006866  46.9496 313.2322 15.38508053166407
SITRO-AIS 12 (SMIRENNIY)
1 57204U 23091AQ  26178.93226723  .00019051  00000+0  49787-3 0  9994
2 57204  97.5096 249.9286 0006360  41.5099 318.6628 15.38799722166425
SITRO-AIS 11 (SHEFFER)  
1 57208U 23091AU  26178.94269538  .00020432  00000+0  52624-3 0  9999
2 57208  97.5094 250.1927 0006245  41.3509 318.8208 15.39232143166447
SITRO-AIS 25            
1 59066U 24039R   26178.96184881  .00002186  00000+0  17264-3 0  9992
2 59066  95.3906 242.4968 0142546 290.6270  67.9717 14.93561655126330
SITRO-AIS 26            
1 59067U 24039S   26178.96469681  .00002285  00000+0  18117-3 0  9995
2 59067  95.3907 242.3941 0142893 291.2171  67.3841 14.93356068126325
SITRO-AIS 27            
1 59068U 24039T   26178.93191997  .00002833  00000+0  22206-3 0  9998
2 59068  95.3913 242.6483 0141794 289.9127  68.6869 14.93779713126343
SITRO-AIS 28            
1 59071U 24039U   26178.97610649  .00002650  00000+0  20769-3 0  9995
2 59071  95.3910 242.7264 0141793 289.5737  69.0226 14.93810944126359
GRBBETA                 
1 60237U 24128C   26178.97149904  .00003170  00000+0  22328-3 0  9992
2 60237  61.9878 178.4272 0039257 136.8811 223.5368 15.06701390107890
OOV-CUBE (TUBSAT-30)    
1 60240U 24128F   26178.50198201  .00001706  00000+0  14007-3 0  9997
2 60240  61.9924 189.6042 0043347 136.0616 224.3935 15.02808571107664
ROBUSTA-3A (MEDITERRAN*)
1 60243U 24128J   26178.98265748  .00005445  00000+0  32447-3 0  9995
2 60243  61.9840 170.0640 0039988 130.4067 230.0530 15.11773939108054
LASARSAT                
1 62391U 24247Q   26178.95595216  .00028991  00000+0  56628-3 0  9994
2 62391  44.9721 201.6735 0007068  37.6087 322.5296 15.46981123 84984
CROCUBE                 
1 62394U 24247T   26178.35993930  .00037427  00000+0  68077-3 0  9991
2 62394  44.9690 202.1892 0006965  37.4943 322.6433 15.48916422 84926
FORESAIL-1 PRIME        
1 66778U 25276DS  26178.14301976  .00005433  00000+0  26440-3 0  9994
2 66778  97.4203 251.2317 0003890  83.4614 276.7063 15.18788261 31910
KNACKSAT-2              
1 67683U 98067XZ  26178.46927798  .00048531  00000+0  57112-3 0  9995
2 67683  51.6278 242.7251 0008624 261.3976  98.6041 15.60876135 21887
